{"fetched_at":"2026-03-30T06:02:59Z","count":15439,"tles":[{"name":"STARLINK-5557","line1":"1 55770U 23028AF  26087.65837576 -.00000697  00000+0 -50608-4 0  9995","line2":"2 55770  70.0006 176.6619 0003116 269.7728  90.3074 14.98340936169373","category":"Starlink"}]}